POLYGON ((-31.9492378235 -55.6959533691, -34.777507782 -55.696105957, -34.6059188843 -55.2883300781, -33.8732452393 -54.7830162048, -33.7391052246 -54.3863792419, -32.0453529358 -41.4683532715, -31.7827529907 -40.7191619873, -31.213470459 -39.7361984253, -28.1272830963 -35.9830970764, -27.6041870117 -35.1315383911, -27.1586284637 -34.1210136414, -26.995765686 -33.4794502258, -26.8081798553 -32.0369377136, -26.4396343231 -27.0493164062, -25.8222177656 -23.8391922344, -25.9508857895 -23.6151711912, -26.551574707 -24.3078994751, -27.1719894409 -24.8480396271, -27.5200195312 -25.0415172577, -28.0669994354 -25.2003822327, -28.8142948151 -25.3090629578, -29.1104564667 -25.2481479645, -29.3278179169 -25.0234222412, -29.280790329 -24.6444606781, -28.3303356171 -24.3781776428, -27.7165409078 -24.0521891239, -27.1354827881 -23.5687046051, -25.2024860382 -21.6023578644, -23.8916950226 -20.4628429413, -22.9621772766 -19.78698349, -21.5003051758 -19.023065567, -19.3991851807 -18.4223251343, -12.5305117535 -16.9871919234, -9.4601383209 -16.2262020111, -4.1398496628 -14.7599115372, 2.3592185619 -13.2397971488, 2.8507297039 -12.9772586823, 3.214602573 -12.4919408765, 9.7684336371 2.4716374892, 8.9469308853 3.0207467079, 8.091796875 3.9165971279, 7.7378749847 4.4495835304, 7.1812167168 5.5671081543, 7.1235628128 5.9459638596, 7.3356628418 6.053486824, 7.8702273369 5.9994096756, 10.2795558419 5.4703296132, 10.2065034905 6.0222114008, 9.8704519272 7.3423962593, 9.6232786586 7.9324881265, 9.1173686981 8.7062139511, 8.2768583298 9.5311536789, 7.1333470345 10.4543590546, 5.6210799217 11.3161211014, 4.621073246 11.7472658157, 4.1093387604 11.8537368774, 3.5061786175 11.8536319733, 3.1622519493 11.7386388779, 2.5669822693 11.387137413, 2.4922842979 11.4522609711, 2.5733669251 11.6904678246, 2.2038025856 11.5391635895, 2.0164260864 11.5715675354, 1.9806553125 11.7320108414, 2.4593539238 12.2158651352, 3.3385815621 12.6789922714, 3.4434742928 12.8159742355, 3.4312642862 13.0705468987, 2.4886379451 13.8336706391, -1.8856520653 16.7772846222, -2.4577758312 17.2884922028, -2.6091709137 17.7054347992, -2.6268458366 20.1841468811, -2.9791891575 23.7169437408, -3.1195373535 26.0628814697, -3.0277955532 26.2028102875, -2.8736650944 26.2390003204, -2.704595089 26.1828193665, -2.5925478935 26.0261650085, -1.4607149363 21.5072479248, -1.1190464721 20.6888928578, -0.9228889942 20.6248645782, -0.7798054218 20.7455387115, -0.0963723635 21.6769654445, 0.5950592756 22.8006820679, 0.8718628883 22.8753795624, 1.0471402407 22.6991558075, 0.9333046675 22.1468105316, -0.0178854465 20.0444297791, -0.2101013809 19.2595748901, -0.1497116983 18.6363182068, 0.1874815524 18.115852356, 1.5916627387 17.0512022065, 3.9480049774 15.534900222, 5.0424332619 15.0368204117, 5.8458051681 14.8920536041, 6.0940976143 14.9878988266, 6.3020586462 15.2301561019, 6.4521222115 15.9047908783, 6.8256120682 20.9890975952, 6.8438134193 25.5908107758, 6.9793219566 25.9882888794, 7.2288765907 25.9809246063, 7.4851641655 25.6898136139, 7.7614417076 24.9616641998, 8.3835401535 21.3623771667, 8.6753883362 21.3035640717, 8.9113712311 21.4538021088, 10.3809232712 23.5199928284, 10.5768213272 23.5131530762, 10.7084972152 23.3944446217, 10.9437885284 23.4949531555, 11.1215906143 23.4214115143, 11.1950263977 23.2914791107, 11.0177497864 22.34333992, 10.5074892044 20.8493804932, 9.935259819 19.7209129333, 9.0946435928 18.4171695709, 8.6866455078 17.1518268585, 8.6040563583 15.8658638001, 8.6863298416 14.5891580582, 8.909371376 13.6454381943, 9.2628726959 12.9660015106, 9.8569850922 12.2368011475, 10.5766285325 11.682359428, 11.0884504318 11.6333255768, 11.7126522064 11.7213850021, 12.1465320587 11.9617862701, 12.5490598679 12.311709404, 13.1651611328 13.0519571304, 13.7876796722 14.2167196274, 14.2453365326 15.5082597733, 15.0470256805 18.5152244568, 15.3045759201 18.9862422943, 15.5144672394 18.9764575958, 15.6199913025 18.3088054657, 15.6042101953 15.258910693, 16.0618667603 16.975812912, 16.2042140961 17.0604000092, 16.2778606415 16.9036407471, 16.3151035309 16.2702846527, 16.3378295898 14.6912107468, 16.4718695762 14.5379595918, 16.9984321594 14.6628036499, 17.1177387238 14.5184583664, 17.1266822815 14.2876310348, 16.9195270538 13.9413890839, 14.6166172028 11.2037591934, 14.0211372375 10.2728738785, 13.7021864053 9.6125727528, 13.463637352 8.8984298706, 13.3280432266 8.0469819078, 13.4004646221 7.2756545333, 13.6056690216 6.5631170273, 13.8977279663 6.0756859779, 14.2387084961 5.6922011375, 14.8237733841 5.3130292892, 16.9817047119 4.520072937, 21.2280254364 2.1372056007, 24.3358840942 0.5873790979, 24.7373600006 0.1449773163, 24.9491443634 -0.6717563272, 24.7385177612 -1.4946972132, 24.3628177643 -2.2230556011, 24.0387763977 -2.6825013161, 23.7358798981 -2.8658797741, 23.333984375 -2.9809777737, 22.9369277954 -2.9848704338, 22.4630680084 -2.7490983009, 22.168746687 -2.7221934053, 20.6705245972 -2.8631441593, 16.6029030452 -3.6314914722, 15.7527637482 -3.8564176559, 15.226218301 -4.0927315537, 14.9871616363 -4.3183884621, 14.7641201019 -4.8073973656, 12.5808334351 -16.914686203, 11.8608913422 -20.2141304016, 11.3562059402 -21.7469139099, 10.5306348801 -23.5328273773, 9.0443544388 -26.0836086273, 7.7540774345 -28.0720481873, 5.7893786647 -30.5835408564, 5.7072458267 -30.8551292419, 4.8170649741 -41.1028078698, 4.4810404778 -48.2453575134, 4.5228085518 -52.1270256042, 4.6232322118 -53.5776236751, 4.7401448288 -54.2430034055, 5.1573209763 -55.0835952759, 5.1481685638 -55.580280304, 2.3669133186 -55.5889549255, 2.317953825 -55.4641342163, 2.1963326931 -52.3998336792, 2.2572484016 -45.101940155, 1.9847584963 -41.0271072389, 1.7495556513 -41.3119093718, 1.4842494519 -43.4363376913, 1.2221399026 -47.0592822125, 1.1218383312 -50.0640983582, 1.1862637854 -54.0939764214, 1.2947172509 -54.6274952577, 1.6156870127 -55.2592926025, 1.6465061903 -55.5911979675, -0.7943242192 -55.5728149414, -0.8465076089 -55.3234710693, -0.8509007004 -47.368911848, -1.036453014 -42.5619278156, -1.310980481 -39.2701889032, -1.7979621327 -35.0322032892, -2.2116595615 -32.449221482, -2.3797160327 -32.0620831369, -2.5415217877 -31.9043731689, -2.7739274502 -31.9072151184, -3.3508908749 -32.1277313232, -4.791721344 -32.4375724792, -6.5904712677 -32.5089035034, -9.8100614548 -32.2853355408, -15.4299883095 -31.5441375302, -16.0845191991 -31.6173634872, -16.5623684441 -31.9054260731, -17.7014489669 -33.2900490676, -18.4730358124 -34.7935028076, -19.500711441 -36.4258155823, -22.5502853394 -40.6404685974, -22.8451843262 -41.1456794739, -23.0298252106 -41.8050193787, -23.0513935089 -42.3466339111, -22.9499721527 -43.0951919556, -22.514093399 -44.5644302368, -19.5577354431 -52.4949417114, -18.2712211609 -55.6533050537, -20.5905895233 -55.660533905, -24.8194236755 -45.9009971619, -26.4214324951 -42.5932426453, -27.085193634 -41.3529396057, -27.2406921387 -41.3134880066, -27.9383753906 -41.8576432862, -28.6396596742 -42.6673351983, -29.3215045929 -44.0946731567, -30.2789020538 -47.0109481811, -31.2451734508 -50.6295204042, -31.8678665161 -53.8920059204, -31.9492378235 -55.6959533691))
POLYGON ((-36.87006184419002 -45.041937526764336, -36.52226815751039 -38.554961698511356, -39.51113663785834 -26.032807687545972, -51.23317969314842 7.227640610486076, -32.77049546586447 15.778684831769764, -0.0991740705839359 50.7550496351816, 30.39984563918421 16.9208686533087, 47.999325122612234 6.686651776380622, 32.98850244920105 -38.371756481544054, 32.69896991351335 -55.99437853570052, -31.95631753868772 -56.195977374218764, -41.72563972491613 -68.6187407166939, -40.62058699529909 -70.15150794419716, -48.38971588650765 -72.6837757238804, -47.807593854382766 -46.116219328961364, -42.240936266606845 -44.317301711290405, -36.87006184419002 -45.041937526764336), (-33.45599344872046 -56.196045448071665, -32.57261013841434 -56.332878328325094, -32.54435057884084 -56.19600406643567, -33.45599344872046 -56.196045448071665))
POLYGON ((-66.87249549569341 12.856979833144166, -53.11165368656737 20.9193583648915, -49.68203983288013 22.47935490302321, -45.57167129952422 17.72159483012844, -42.28997874052868 17.344363295346188, -28.416458882476856 28.750830227467645, -18.069664914220496 39.0001382460534, -21.578316891365752 46.92230555191208, -0.0880109027707484 69.31927820717374, 20.766267652287986 47.330613037080205, 17.974067102730658 38.01808642389514, 35.48040770576959 22.09841248752287, 44.17501298009928 17.06602503155817, 49.3423644266754 22.508283976801003, 66.22840208212016 13.439358364891502, 54.60392632408009 -8.413974968441831, 49.04933689590808 -8.782336117890477, 46.74928741427727 -11.303248623029814, 41.83833373521371 -26.044596290733452, 38.32834631343261 -42.36730830177516, 46.264688752316076 -46.61272321783605, 46.94167964676595 -70.99403073712936, 20.555012980099285 -63.735673077691, 20.432692946754287 -60.53264735524768, -24.17107161778945 -60.671724412733525, -24.63813286994893 -64.68308425397977, -35.33356479251287 -67.77021943932168, -36.09331183450625 -68.73632102988383, -33.36559025780984 -72.51981671878431, -53.02762319165589 -78.92845444106361, -52.236413089322596 -42.81829565315526, -42.65214379473202 -39.72104912511251, -41.1024596622308 -39.93013176915927, -41.05073188903553 -38.96531605450212, -43.83352396343863 -27.30653910754434, -50.371001998319386 -8.756918605976358, -55.15165368656737 -8.640641635108498, -66.87249549569341 12.856979833144166))
POLYGON ((-53.11165368656737 20.9193583648915, -49.68203983288013 22.47935490302321, -45.57167129952422 17.72159483012844, -42.28997874052868 17.344363295346188, -28.416458882476856 28.750830227467645, -18.069664914220496 39.0001382460534, -21.578316891365752 46.92230555191208, -0.0880109027707484 69.31927820717374, 20.766267652287986 47.330613037080205, 17.974067102730658 38.01808642389514, 35.48040770576959 22.09841248752287, 44.17501298009928 17.06602503155817, 49.3423644266754 22.508283976801003, 66.22840208212016 13.439358364891502, 54.60392632408009 -8.413974968441831, 49.04933689590808 -8.782336117890477, 46.74928741427727 -11.303248623029814, 41.83833373521371 -26.044596290733452, 38.32834631343261 -42.36730830177516, 46.264688752316076 -46.61272321783605, 46.94167964676595 -70.99403073712936, 20.555012980099285 -63.735673077691, 20.432692946754287 -60.53264735524768, -24.17107161778945 -60.671724412733525, -24.63813286994893 -64.68308425397977, -35.33356479251287 -67.77021943932168, -36.09331183450625 -68.73632102988383, -33.36559025780984 -72.51981671878431, -53.02762319165589 -78.92845444106361, -52.236413089322596 -42.81829565315526, -42.65214379473202 -39.72104912511251, -41.1024596622308 -39.93013176915927, -41.05073188903553 -38.96531605450212, -43.83352396343863 -27.30653910754434, -50.371001998319386 -8.756918605976358, -55.15165368656737 -8.640641635108498, -66.87249549569341 12.856979833144166, -53.11165368656737 20.9193583648915), (-42.240936266606845 -44.317301711290405, -47.807593854382766 -46.116219328961364, -48.38971588650765 -72.6837757238804, -40.62058699529909 -70.15150794419716, -41.72563972491613 -68.6187407166939, -31.95631753868772 -56.195977374218764, 32.69896991351335 -55.99437853570052, 32.98850244920105 -38.371756481544054, 47.999325122612234 6.686651776380622, 30.39984563918421 16.9208686533087, -0.0991740705839359 50.7550496351816, -32.77049546586447 15.778684831769764, -51.23317969314842 7.227640610486076, -39.51113663785834 -26.032807687545972, -36.52226815751039 -38.554961698511356, -36.87006184419002 -45.041937526764336, -42.240936266606845 -44.317301711290405))
